{"type": "FeatureCollection", "features": [ {"type": "Feature", "properties": {"norad_id": 41774, "name": "SKYSAT-C3", "group": "resource", "lat": 24.476931781570574, "lon": -159.9226528154225, "alt_km": 432.52934347712016, "timestamp": "2025-12-08T23:34:03.626989+00:00", "meta": {"OBJECT_NAME": "SKYSAT-C3", "OBJECT_ID": "2016-058E", "EPOCH": "2025-12-08T15:07:17.647968", "MEAN_MOTION": 15.44179872, "ECCENTRICITY": 0.00015952, "INCLINATION": 96.93, "RA_OF_ASC_NODE": 16.5677, "ARG_OF_PERICENTER": 106.0505, "MEAN_ANOMALY": 254.092, "EPHEMERIS_TYPE": 0, "CLASSIFICATION_TYPE": "U", "NORAD_CAT_ID": 41774, "ELEMENT_SET_NO": 999, "REV_AT_EPOCH": 51662, "BSTAR": 0.00051863643, "MEAN_MOTION_DOT": 0.00023741, "MEAN_MOTION_DDOT": 0}, "tle": {"line1": "1 41774U 16058E   25342.63006537  .00023741  00000+0  51864-3 0  9992", "line2": "2 41774  96.9300  16.5677 0001595 106.0505 254.0920 15.44179872516621"}}, "geometry": {"type": "Point", "coordinates": [-159.9226528154225, 24.476931781570574]}}, {"type": "Feature", "properties": {"norad_id": 41785, "name": "ALSAT 1B", "group": "resource", "lat": -82.15084406420723, "lon": 92.21532759513606, "alt_km": 668.5762971965523, "timestamp": "2025-12-08T23:34:03.627000+00:00", "meta": {"OBJECT_NAME": "ALSAT 1B", "OBJECT_ID": "2016-059C", "EPOCH": "2025-12-08T14:11:35.577600", "MEAN_MOTION": 14.72069557, "ECCENTRICITY": 0.00106111, "INCLINATION": 97.7815, "RA_OF_ASC_NODE": 354.5602, "ARG_OF_PERICENTER": 115.5213, "MEAN_ANOMALY": 244.7094, "EPHEMERIS_TYPE": 0, "CLASSIFICATION_TYPE": "U", "NORAD_CAT_ID": 41785, "ELEMENT_SET_NO": 999, "REV_AT_EPOCH": 49253, "BSTAR": 0.00015498864, "MEAN_MOTION_DOT": 9.28e-06, "MEAN_MOTION_DDOT": 0}, "tle": {"line1": "1 41785U 16059C   25342.59138400  .00000928  00000+0  15499-3 0  9991", "line2": "2 41785  97.7815 354.5602 0010611 115.5213 244.7094 14.72069557492535"}}, "geometry": {"type": "Point", "coordinates": [92.21532759513606, -82.15084406420723]}}, {"type": "Feature", "properties": {"norad_id": 41787, "name": "PATHFINDER 1", "group": "resource", "lat": 50.82538747709366, "lon": -23.77199813900971, "alt_km": 648.9704906058932, "timestamp": "2025-12-08T23:34:03.627010+00:00", "meta": {"OBJECT_NAME": "PATHFINDER 1", "OBJECT_ID": "2016-059E", "EPOCH": "2025-12-08T13:30:52.450848", "MEAN_MOTION": 14.67310713, "ECCENTRICITY": 0.00300558, "INCLINATION": 97.8138, "RA_OF_ASC_NODE": 345.5305, "ARG_OF_PERICENTER": 93.8632, "MEAN_ANOMALY": 266.6011, "EPHEMERIS_TYPE": 0, "CLASSIFICATION_TYPE": "U", "NORAD_CAT_ID": 41787, "ELEMENT_SET_NO": 999, "REV_AT_EPOCH": 49175, "BSTAR": 0.00028103906, "MEAN_MOTION_DOT": 1.55e-05, "MEAN_MOTION_DDOT": 0}, "tle": {"line1": "1 41787U 16059E   25342.56310707  .00001550  00000+0  28104-3 0  9991", "line2": "2 41787  97.8138 345.5305 0030055  93.8632 266.6011 14.67310713491755"}}, "geometry": {"type": "Point", "coordinates": [-23.77199813900971, 50.82538747709366]}}, {"type": "Feature", "properties": {"norad_id": 41790, "name": "SCATSAT 1", "group": "resource", "lat": -66.6779515485716, "lon": -159.80089438953928, "alt_km": 652.0449461719318, "timestamp": "2025-12-08T23:34:03.627020+00:00", "meta": {"OBJECT_NAME": "SCATSAT 1", "OBJECT_ID": "2016-059H", "EPOCH": "2025-12-08T14:20:06.480672", "MEAN_MOTION": 14.78915908, "ECCENTRICITY": 0.00560796, "INCLINATION": 98.1466, "RA_OF_ASC_NODE": 39.2159, "ARG_OF_PERICENTER": 141.092, "MEAN_ANOMALY": 219.4348, "EPHEMERIS_TYPE": 0, "CLASSIFICATION_TYPE": "U", "NORAD_CAT_ID": 41790, "ELEMENT_SET_NO": 999, "REV_AT_EPOCH": 7341, "BSTAR": 0.00040402115, "MEAN_MOTION_DOT": 3.002e-05, "MEAN_MOTION_DDOT": 0}, "tle": {"line1": "1 41790U 16059H   25342.59729723  .00003002  00000+0  40402-3 0  9999", "line2": "2 41790  98.1466  39.2159 0056079 141.0920 219.4348 14.78915908 73418"}}, "geometry": {"type": "Point", "coordinates": [-159.80089438953928, -66.6779515485716]}}, {"type": "Feature", "properties": {"norad_id": 41875, "name": "GOKTURK 1A", "group": "resource", "lat": -10.216602340944707, "lon": 53.9185999693043, "alt_km": 688.7207811342969, "timestamp": "2025-12-08T23:34:03.627030+00:00", "meta": {"OBJECT_NAME": "GOKTURK 1A", "OBJECT_ID": "2016-073A", "EPOCH": "2025-12-08T14:29:32.976960", "MEAN_MOTION": 14.62773028, "ECCENTRICITY": 0.00012331, "INCLINATION": 98.1436, "RA_OF_ASC_NODE": 235.0244, "ARG_OF_PERICENTER": 83.3627, "MEAN_ANOMALY": 276.7715, "EPHEMERIS_TYPE": 0, "CLASSIFICATION_TYPE": "U", "NORAD_CAT_ID": 41875, "ELEMENT_SET_NO": 999, "REV_AT_EPOCH": 48096, "BSTAR": 0.00022061279, "MEAN_MOTION_DOT": 1.078e-05, "MEAN_MOTION_DDOT": 0}, "tle": {"line1": "1 41875U 16073A   25342.60385390  .00001078  00000+0  22061-3 0  9991", "line2": "2 41875  98.1436 235.0244 0001233  83.3627 276.7715 14.62773028480968"}}, "geometry": {"type": "Point", "coordinates": [53.9185999693043, -10.216602340944707]}}, {"type": "Feature", "properties": {"norad_id": 41877, "name": "RESOURCESAT-2A", "group": "resource", "lat": 72.8002178919155, "lon": 22.921925447733052, "alt_km": 813.7142982303958, "timestamp": "2025-12-08T23:34:03.627041+00:00", "meta": {"OBJECT_NAME": "RESOURCESAT-2A", "OBJECT_ID": "2016-074A", "EPOCH": "2025-12-08T14:46:10.056288", "MEAN_MOTION": 14.21597173, "ECCENTRICITY": 0.00011338, "INCLINATION": 98.7763, "RA_OF_ASC_NODE": 52.4954, "ARG_OF_PERICENTER": 273.5938, "MEAN_ANOMALY": 86.511, "EPHEMERIS_TYPE": 0, "CLASSIFICATION_TYPE": "U", "NORAD_CAT_ID": 41877, "ELEMENT_SET_NO": 999, "REV_AT_EPOCH": 46722, "BSTAR": 0.00018255206, "MEAN_MOTION_DOT": 3.56e-06, "MEAN_MOTION_DDOT": 0}, "tle": {"line1": "1 41877U 16074A   25342.61539417  .00000356  00000+0  18255-3 0  9994", "line2": "2 41877  98.7763  52.4954 0001133 273.5938  86.5110 14.21597173467225"}}, "geometry": {"type": "Point", "coordinates": [22.921925447733052, 72.8002178919155]}}, {"type": "Feature", "properties": {"norad_id": 41948, "name": "CARTOSAT-2D", "group": "resource", "lat": -22.997933077185415, "lon": -142.64278547073044, "alt_km": 511.18192461922354, "timestamp": "2025-12-08T23:34:03.627051+00:00", "meta": {"OBJECT_NAME": "CARTOSAT-2D", "OBJECT_ID": "2017-008A", "EPOCH": "2025-12-08T14:46:21.458496", "MEAN_MOTION": 15.19195726, "ECCENTRICITY": 0.00043185, "INCLINATION": 97.439, "RA_OF_ASC_NODE": 40.1754, "ARG_OF_PERICENTER": 175.1332, "MEAN_ANOMALY": 184.9946, "EPHEMERIS_TYPE": 0, "CLASSIFICATION_TYPE": "U", "NORAD_CAT_ID": 41948, "ELEMENT_SET_NO": 999, "REV_AT_EPOCH": 48864, "BSTAR": 0.00034698873, "MEAN_MOTION_DOT": 7.237e-05, "MEAN_MOTION_DDOT": 0}, "tle": {"line1": "1 41948U 17008A   25342.61552614  .00007237  00000+0  34699-3 0  9990", "line2": "2 41948  97.4390  40.1754 0004318 175.1332 184.9946 15.19195726488646"}}, "geometry": {"type": "Point", "coordinates": [-142.64278547073044, -22.997933077185415]}}, {"type": "Feature", "properties": {"norad_id": 42063, "name": "SENTINEL-2B", "group": "resource", "lat": -77.39014379516776, "lon": 97.87803945160906, "alt_km": 797.1421434485437, "timestamp": "2025-12-08T23:34:03.627061+00:00", "meta": {"OBJECT_NAME": "SENTINEL-2B", "OBJECT_ID": "2017-013A", "EPOCH": "2025-12-08T13:52:28.409376", "MEAN_MOTION": 14.3081387, "ECCENTRICITY": 0.0001138, "INCLINATION": 98.5723, "RA_OF_ASC_NODE": 55.0826, "ARG_OF_PERICENTER": 98.0466, "MEAN_ANOMALY": 262.0846, "EPHEMERIS_TYPE": 0, "CLASSIFICATION_TYPE": "U", "NORAD_CAT_ID": 42063, "ELEMENT_SET_NO": 999, "REV_AT_EPOCH": 45738, "BSTAR": 0.00014672005, "MEAN_MOTION_DOT": 3.41e-06, "MEAN_MOTION_DDOT": 0}, "tle": {"line1": "1 42063U 17013A   25342.57810659  .00000341  00000+0  14672-3 0  9994", "line2": "2 42063  98.5723  55.0826 0001138  98.0466 262.0846 14.30813870457383"}}, "geometry": {"type": "Point", "coordinates": [97.87803945160906, -77.39014379516776]}}, {"type": "Feature", "properties": {"norad_id": 42767, "name": "CARTOSAT-2E", "group": "resource", "lat": 65.27346519481817, "lon": -122.86085496165384, "alt_km": 502.9749481398703, "timestamp": "2025-12-08T23:34:03.627071+00:00", "meta": {"OBJECT_NAME": "CARTOSAT-2E", "OBJECT_ID": "2017-036C", "EPOCH": "2025-12-08T15:09:56.268864", "MEAN_MOTION": 15.1926013, "ECCENTRICITY": 0.00023154, "INCLINATION": 97.4558, "RA_OF_ASC_NODE": 40.2719, "ARG_OF_PERICENTER": 256.8387, "MEAN_ANOMALY": 103.2589, "EPHEMERIS_TYPE": 0, "CLASSIFICATION_TYPE": "U", "NORAD_CAT_ID": 42767, "ELEMENT_SET_NO": 999, "REV_AT_EPOCH": 46921, "BSTAR": 0.00036455982, "MEAN_MOTION_DOT": 7.62e-05, "MEAN_MOTION_DDOT": 0}, "tle": {"line1": "1 42767U 17036C   25342.63190126  .00007620  00000+0  36456-3 0  9998", "line2": "2 42767  97.4558  40.2719 0002315 256.8387 103.2589 15.19260130469217"}}, "geometry": {"type": "Point", "coordinates": [-122.86085496165384, 65.27346519481817]}}, {"type": "Feature", "properties": {"norad_id": 42920, "name": "FORMOSAT-5", "group": "resource", "lat": 8.638462275762691, "lon": 56.11312119668861, "alt_km": 720.630852123375, "timestamp": "2025-12-08T23:34:03.627082+00:00", "meta": {"OBJECT_NAME": "FORMOSAT-5", "OBJECT_ID": "2017-049A", "EPOCH": "2025-12-08T15:15:09.361728", "MEAN_MOTION": 14.51002086, "ECCENTRICITY": 0.00100499, "INCLINATION": 98.2456, "RA_OF_ASC_NODE": 57.0359, "ARG_OF_PERICENTER": 309.4405, "MEAN_ANOMALY": 50.59, "EPHEMERIS_TYPE": 0, "CLASSIFICATION_TYPE": "U", "NORAD_CAT_ID": 42920, "ELEMENT_SET_NO": 999, "REV_AT_EPOCH": 43904, "BSTAR": 0.00014873234, "MEAN_MOTION_DOT": 5.45e-06, "MEAN_MOTION_DDOT": 0}, "tle": {"line1": "1 42920U 17049A   25342.63552502  .00000545  00000+0  14873-3 0  9991", "line2": "2 42920  98.2456  57.0359 0010049 309.4405  50.5900 14.51002086439047"}}, "geometry": {"type": "Point", "coordinates": [56.11312119668861, 8.638462275762691]}}]}